[{"OBJECT_NAME":"STARLINK-6216","OBJECT_ID":"2023-083T","EPOCH":"2026-03-09T10:30:50.012640","MEAN_MOTION":15.02535415,"ECCENTRICITY":0.00013252,"INCLINATION":43.0042,"RA_OF_ASC_NODE":83.0492,"ARG_OF_PERICENTER":262.8072,"MEAN_ANOMALY":97.2619,"EPHEMERIS_TYPE":0,"CLASSIFICATION_TYPE":"U","NORAD_CAT_ID":56893,"ELEMENT_SET_NO":999,"REV_AT_EPOCH":15175,"BSTAR":-1.9915865e-5,"MEAN_MOTION_DOT":-4.73e-6,"MEAN_MOTION_DDOT":0},{"OBJECT_NAME":"COSMOS 2251 DEB","OBJECT_ID":"1993-036SS","EPOCH":"2026-03-09T22:59:54.978144","MEAN_MOTION":15.02003149,"ECCENTRICITY":0.00206055,"INCLINATION":74.0288,"RA_OF_ASC_NODE":253.6967,"ARG_OF_PERICENTER":277.4018,"MEAN_ANOMALY":234.4946,"EPHEMERIS_TYPE":0,"CLASSIFICATION_TYPE":"U","NORAD_CAT_ID":34449,"ELEMENT_SET_NO":999,"REV_AT_EPOCH":89999,"BSTAR":0.0029470254,"MEAN_MOTION_DOT":0.00038984,"MEAN_MOTION_DDOT":0}]
